STARLINK-1007           
1 44713U 19074A   23283.90459034  .00009469  00000+0  65428-3 0  9997
2 44713  53.0531 180.6184 0001046  80.9270 279.1837 15.06369414215995
STARLINK-1008           
1 44714U 19074B   23283.88343944  .00012252  00000+0  84095-3 0  9992
2 44714  53.0542 180.7144 0001627  67.3640 292.7520 15.06356954215995
STARLINK-1009           
1 44715U 19074C   23283.93872625 -.00003807  00000+0 -23702-3 0  9998
2 44715  53.0542 180.4660 0001441  75.4970 284.6178 15.06373370215996
STARLINK-1010           
1 44716U 19074D   23283.89081153  .00015865  00000+0  10830-2 0  9994
2 44716  53.0536 180.6818 0001117  70.4727 289.6382 15.06351511215975
STARLINK-1011           
1 44717U 19074E   23283.49087189  .00008213  00000+0  56946-3 0  9994
2 44717  53.0532 202.4751 0002205  68.2148 291.9075 15.06412390215824
STARLINK-1012           
1 44718U 19074F   23283.92764726  .00007604  00000+0  52849-3 0  9993
2 44718  53.0540 180.5142 0001607  92.0774 268.0399 15.06421389215999
STARLINK-1013           
1 44719U 19074G   23283.93503398  .00008798  00000+0  60988-3 0  9999
2 44719  53.0544 180.4820 0001364  43.7821 316.3276 15.06332457217127
STARLINK-1014           
1 44720U 19074H   23283.88616660 -.00010514  00000+0 -68838-3 0  9995
2 44720  53.0542 180.6926 0001585 115.8257 244.2895 15.06378095215992
STARLINK-1015           
1 44721U 19074J   23283.94238837  .00008800  00000+0  60852-3 0  9990
2 44721  53.0534 180.4475 0001356  91.4852 268.6293 15.06424644215991
STARLINK-1017           
1 44723U 19074L   23283.89449095 -.00006475  00000+0 -41643-3 0  9991
2 44723  53.0536 180.6643 0001323  86.8385 273.2756 15.06380742215993
STARLINK-1019           
1 44724U 19074M   23283.92396977  .00012296  00000+0  84393-3 0  9991
2 44724  53.0540 180.5327 0001234  80.7172 279.3956 15.06356124215991
STARLINK-1020           
1 44725U 19074N   23283.92948967  .00018576  00000+0  12621-2 0  9995
2 44725  53.0549 200.5034 0001524 100.1877 259.9284 15.06417357215714
STARLINK-1021           
1 44726U 19074P   23283.92027429  .00018409  00000+0  12506-2 0  9994
2 44726  53.0545 180.5471 0002091  82.1830 277.9396 15.06427535215994
STARLINK-1024           
1 44729U 19074S   23283.79506607  .00063799  00000+0  92147-3 0  9994
2 44729  53.0154 102.8841 0007016 170.5501 189.5642 15.55351200217027
STARLINK-1027           
1 44732U 19074V   23283.91843412  .00009780  00000+0  67509-3 0  9994
2 44732  53.0549 200.5551 0001751  89.1634 270.9555 15.06370497215712
STARLINK-1028           
1 44733U 19074W   23283.91659050  .00012998  00000+0  89046-3 0  9993
2 44733  53.0526 180.5628 0001506 116.8512 243.2631 15.06376020215997
STARLINK-1029           
1 44734U 19074X   23283.86496982  .00011544  00000+0  79155-3 0  9997
2 44734  53.0543 100.7945 0001150  67.3229 292.7881 15.06451350217081
STARLINK-1030           
1 44735U 19074Y   23283.92582538  .00007223  00000+0  50387-3 0  9993
2 44735  53.0535 200.5217 0001275 106.1776 253.9353 15.06356990215716
STARLINK-1031           
1 44736U 19074Z   23283.94055306  .00007777  00000+0  54057-3 0  9996
2 44736  53.0546 200.4585 0001564  85.0511 275.0656 15.06391320215727
STARLINK-1032           
1 44737U 19074AA  23283.48718344  .00030927  00000+0  20852-2 0  9992
2 44737  53.0538 202.4913 0002816  74.5527 285.5773 15.06413503215822
STARLINK-1035           
1 44740U 19074AD  23283.81522815 -.00001393  00000+0 -74657-4 0  9990
2 44740  53.0534 201.0197 0001408  78.3162 281.7985 15.06403527215709
STARLINK-1036           
1 44741U 19074AE  23283.49455206  .00019518  00000+0  13244-2 0  9993
2 44741  53.0533 202.4582 0001686  80.9215 279.1965 15.06432840215820
STARLINK-1038           
1 44743U 19074AG  23283.54432383  .00012304  00000+0  84332-3 0  9995
2 44743  53.0534 222.2330 0003291  70.5916 289.5429 15.06403956215557
STARLINK-1039           
1 44744U 19074AH  23283.82077942  .00007401  00000+0  51567-3 0  9999
2 44744  53.0524 220.9966 0002268  76.0826 284.0415 15.06368768215423
STARLINK-1041           
1 44746U 19074AK  23283.80603138  .00012436  00000+0  85253-3 0  9994
2 44746  53.0543 221.0621 0004309  77.7653 282.3818 15.06387801215427
STARLINK-1042           
1 44747U 19074AL  23283.57012704  .00006488  00000+0  45420-3 0  9994
2 44747  53.0541 222.1182 0003455  77.7279 282.4097 15.06388039215564
STARLINK-1043           
1 44748U 19074AM  23283.79865880 -.00011872  00000+0 -78052-3 0  9992
2 44748  53.0552 221.0916 0001070  81.3485 278.7625 15.06349644215420
STARLINK-1046           
1 44751U 19074AQ  23283.54800970  .00010028  00000+0  69120-3 0  9994
2 44751  53.0533 222.2177 0003164  73.4543 286.6793 15.06397369215553
STARLINK-1047           
1 44752U 19074AR  23283.76731377  .00021723  00000+0  14729-2 0  9991
2 44752  53.0543 201.2338 0003597  75.6223 284.5165 15.06393720215692
STARLINK-1048           
1 44753U 19074AS  23283.90555654  .00010589  00000+0  72957-3 0  9996
2 44753  53.0537 180.6166 0001446  79.0793 281.0359 15.06355815215999
STARLINK-1049           
1 44754U 19074AT  23283.86373747  .01100813  56361-3  29227-2 0  9990
2 44754  53.0325  88.5377 0009184 288.9568  71.0463 15.94064909217277
STARLINK-1052           
1 44757U 19074AW  23283.94495675  .00046058  00000+0  28817-2 0  9995
2 44757  53.0545 200.0986 0002856 118.2036 241.9243 15.08981007215729
STARLINK-1053           
1 44758U 19074AX  23283.86133194 -.00001794  00000+0 -10167-3 0  9992
2 44758  53.0546 220.8990 0001595  77.2511 282.8656 15.06353804215433
STARLINK-1054           
1 44759U 19074AY  23283.24574808  .00029810  00000+0  20092-2 0  9990
2 44759  53.0527 223.5742 0001423  96.1955 263.9196 15.06446536215513
STARLINK-1055           
1 44760U 19074AZ  23283.94511574  .00013519  00000+0  61505-3 0  9994
2 44760  53.0572 203.5244 0001964 110.1893 249.9313 15.21019315215690
STARLINK-1056           
1 44761U 19074BA  23283.83917089 -.00034866  00000+0 -23339-2 0  9996
2 44761  53.0530 220.9122 0001613 115.5927 244.5228 15.06389156215435
STARLINK-1057           
1 44762U 19074BB  23283.77468888  .00023042  00000+0  15605-2 0  9997
2 44762  53.0531 201.2004 0004314  78.5531 281.5942 15.06400900215691
STARLINK-1058           
1 44763U 19074BC  23283.54396157 -.00000214  00000+0  44436-5 0  9996
2 44763  53.0533 222.3867 0002829  79.2378 280.8928 15.04753550215552
STARLINK-1059           
1 44764U 19074BD  23283.90952972  .00015874  00000+0  64214-3 0  9991
2 44764  53.0781 169.6514 0007525 122.8999 237.2723 15.24869543216161
STARLINK-1060           
1 44765U 19074BE  23283.92213038  .00018315  00000+0  12452-2 0  9996
2 44765  53.0548 200.5385 0001588 101.4950 258.6217 15.06400733215714
STARLINK-1061           
1 44766U 19074BF  23283.85394655  .00017487  00000+0  11903-2 0  9993
2 44766  53.0534 220.8461 0001715  99.7735 260.3448 15.06388098215436
STARLINK-1062           
1 44767U 19074BG  23283.84560194  .00004432  00000+0  31615-3 0  9995
2 44767  53.0526 220.8718 0001578  93.8510 266.2659 15.06409777215433
STARLINK-1063           
1 44768U 19074BH  23283.86869037 -.00003012  00000+0 -18350-3 0  9992
2 44768  53.0545 220.7760 0002245 107.8067 252.3167 15.06369870215446
STARLINK-1067           
1 44771U 19074BL  23283.85763081 -.00022050  00000+0 -14682-2 0  9993
2 44771  53.0545 220.8278 0001398  76.1785 283.9360 15.06344750215432
STARLINK-1068           
1 44772U 19074BM  23283.91474477  .00025210  00000+0  17039-2 0  9997
2 44772  53.0536 200.5723 0001622 101.9676 258.1495 15.06429664215711
STARLINK-1073           
1 44914U 20001A   23283.66593315  .00032296  00000+0  21735-2 0  9992
2 44914  53.0558 341.6890 0001475  96.1104 264.0053 15.06461848207056
STARLINK-1084           
1 44915U 20001B   23283.43004072  .00022149  00000+0  15000-2 0  9999
2 44915  53.0548 342.7497 0001585  92.4442 267.6728 15.06429521207024
STARLINK-1098           
1 44917U 20001D   23283.63276664  .00031978  00000+0  21531-2 0  9997
2 44917  53.0553 341.8362 0001649  94.5024 265.6153 15.06449047207051
STARLINK-1099           
1 44918U 20001E   23283.44753256  .00014993  00000+0  10230-2 0  9996
2 44918  53.0551 342.6987 0001541  95.7241 264.3924 15.06410719207761
STARLINK-1102           
1 44920U 20001G   23283.80074903  .00013713  00000+0  59344-3 0  9993
2 44920  53.0510 318.1928 0003669 332.9885  27.0919 15.22720448207405
STARLINK-1103           
1 44921U 20001H   23283.67973231  .00034597  00000+0  23267-2 0  9998
2 44921  53.0551 341.6182 0001518  89.5096 270.6067 15.06454714207035
STARLINK-1104           
1 44922U 20001J   23283.58116792  .00042750  00000+0  28661-2 0  9993
2 44922  53.0559 342.0687 0001714  71.5150 288.6025 15.06469972207045
STARLINK-1106           
1 44923U 20001K   23283.63823174  .00012815  00000+0  59824-3 0  9994
2 44923  53.0543 327.5284 0002232 127.9627 232.1570 15.20177744207252
STARLINK-1111           
1 44924U 20001L   23283.66225815  .00037211  00000+0  24991-2 0  9999
2 44924  53.0552 341.7275 0001337  80.6284 279.4856 15.06470889207059
STARLINK-1112           
1 44925U 20001M   23283.47795872  .00030222  00000+0  20372-2 0  9998
2 44925  53.0550 342.5367 0001500  90.3245 269.7916 15.06434716207021
STARLINK-1113           
1 44926U 20001N   23283.47427828  .00021024  00000+0  14249-2 0  9998
2 44926  53.0556 342.6377 0001470  92.5245 267.5913 15.06431480207714
STARLINK-1114           
1 44927U 20001P   23283.48902115  .00027058  00000+0  18272-2 0  9990
2 44927  53.0557 342.4834 0001690  78.9108 281.2071 15.06424793207034
STARLINK-1119           
1 44928U 20001Q   23283.48533179  .00030927  00000+0  20842-2 0  9996
2 44928  53.0549 342.5025 0001550  93.1112 267.0055 15.06432478207031
STARLINK-1121           
1 44929U 20001R   23283.53693381  .00009482  00000+0  65441-3 0  9992
2 44929  53.0563 342.2676 0001446  84.3772 275.7382 15.06409962207036
